FLOCK 2P-4              
1 41611U 16040N   17263.13596042  .00004526  00000-0  19673-3 0  9999
2 41611  97.4534 325.2274 0012855 109.4057 250.8570 15.22718722 69110
FLOCK 2P-10             
1 41612U 16040P   17263.11398779  .00005044  00000-0  21888-3 0  9992
2 41612  97.4539 325.2840 0012626 109.3978 250.8625 15.22718628 69118
FLOCK 2P-8              
1 41613U 16040Q   17263.13037825  .00004650  00000-0  20211-3 0  9998
2 41613  97.4534 325.2399 0012779 108.5737 251.6888 15.22709037 69110
FLOCK 2P-12             
1 41614U 16040R   17262.76334175  .00001507  00000-0  67590-4 0  9995
2 41614  97.4544 325.0231 0012493 110.1357 250.1224 15.22705915 69068
FLOCK 2P-7              
1 41615U 16040S   17263.12483031  .00004053  00000-0  17647-3 0  9999
2 41615  97.4531 325.2314 0012626 110.1164 250.1432 15.22726755 69115
FLOCK 2P-5              
1 41616U 16040T   17262.90584862  .00003117  00000-0  13653-3 0  9992
2 41616  97.4544 325.1383 0012459 108.9591 251.2997 15.22705119 69061
FLOCK 2P-1              
1 41617U 16040U   17263.22277096  .00002608  00000-0  11466-3 0  9991
2 41617  97.4543 325.4818 0012132 108.8901 251.3652 15.22730616 69136
FLOCK 2P-3              
1 41618U 16040V   17263.11950324  .00004393  00000-0  19109-3 0  9997
2 41618  97.4545 325.3059 0012354 109.0813 251.1763 15.22715975 69116
BEESAT-4                
1 41619U 16040W   17262.86697425  .00002122  00000-0  98312-4 0  9991
2 41619  97.4538 324.3109 0013672  97.3003 262.9787 15.21116993 56989
3CAT-2                  
1 41732U 16051B   17263.13427519  .00002443  00000-0  10004-3 0  9992
2 41732  97.3713 178.7055 0012529 305.0702 162.3313 15.25192970 61005
FLOCK 2E'-13            
1 41761U 98067KH  17263.05508290  .00010333  00000-0  11829-3 0  9991
2 41761  51.6362 272.4246 0005020 265.6755  94.3665 15.62772567 57737
FLOCK 2E'-14            
1 41762U 98067KJ  17263.02682624  .00011267  00000-0  12662-3 0  9996
2 41762  51.6372 272.2697 0004731 267.3108  92.7345 15.63141874 57735
FLOCK 2E'-16            
1 41763U 98067KK  17263.03169215  .00012324  00000-0  13498-3 0  9997
2 41763  51.6374 271.5489 0004341 282.7003  77.3507 15.63701730 57700
FLOCK 2E'-15            
1 41764U 98067KL  17263.07242594  .00010236  00000-0  11770-3 0  9995
2 41764  51.6371 272.5690 0004773 274.2755  85.7693 15.62669325 57691
FLOCK 2E'-18            
1 41769U 98067KM  17263.05530336  .00011076  00000-0  12662-3 0  9996
2 41769  51.6374 272.4482 0004252 303.2853  56.7734 15.62719853 57697
FLOCK 2E'-17            
1 41776U 98067KN  17263.04292455  .00011422  00000-0  12977-3 0  9994
2 41776  51.6380 272.3917 0004599 303.9041  56.1516 15.62842031 57680
FLOCK 2E'-19            
1 41777U 98067KP  17263.05146337  .00017511  00000-0  17140-3 0  9995
2 41777  51.6354 267.8816 0003508 312.3902  47.6796 15.66219984 57705
FLOCK 2E'-20            
1 41782U 98067KQ  17263.16454995  .00016138  00000-0  16459-3 0  9991
2 41782  51.6368 268.6768 0003492 310.3455  49.7235 15.65254308 57578
CANX-7                  
1 41788U 16059F   17262.86761383  .00006172  00000-0  11358-2 0  9995
2 41788  98.1841 324.1178 0033460 223.8412 136.0093 14.65598072 52450
ALSAT 1N                
1 41789U 16059G   17263.14737519  .00000095  00000-0  27385-4 0  9999
2 41789  98.1581 324.1779 0027503 214.4245 145.5183 14.64076402 52508
RAVAN                   
1 41849U 16067B   17262.73403765  .00000467  00000-0  45672-4 0  9994
2 41849  97.9443 342.3535 0008327 353.8639   6.2479 14.97186519 46656
CELTEE 1                
1 41850U 16067C   17262.73656776 -.00000194  00000-0 -11636-4 0  9990
2 41850  97.9434 342.1875 0008645 352.6223   7.4870 14.96622128 46649
OPTICUBE 04             
1 41851U 16067D   17262.81378647  .00000023  00000-0  73642-5 0  9993
2 41851  97.9429 342.2405 0008661 353.0838   7.0262 14.96531951 46654
AEROCUBE 8D             
1 41852U 16067E   17262.81224416  .00000135  00000-0  17304-4 0  9994
2 41852  97.9442 342.1276 0009393 351.9427   8.1641 14.96272272 46649
AEROCUBE 8C             
1 41853U 16067F   17262.75303453  .00000366  00000-0  37801-4 0  9997
2 41853  97.9441 342.0478 0009676 353.2706   6.8383 14.96235044 46634
PROMETHEUS 2-1          
1 41854U 16067G   17262.76945669  .00001069  00000-0  10009-3 0  9991
2 41854  97.9449 342.0328 0009954 354.2988   5.8117 14.96229378 46636
PROMETHEUS 2-3          
1 41855U 16067H   17262.77134109  .00001089  00000-0  10185-3 0  9999
2 41855  97.9451 342.0344 0010113 354.6504   5.4607 14.96222903 46632
LEMUR-2-XIAOQING        
1 41871U 16062C   17262.58732269  .00004280  00000-0  19433-3 0  9993
2 41871  51.6479 358.4801 0004356 201.2545 265.1180 15.22840858 45321
LEMUR-2-SOKOLSKY        
1 41872U 16062D   17263.08953295  .00003180  00000-0  14779-3 0  9990
2 41872  51.6628 355.8533 0004220 221.7549 199.9853 15.22899217 45393
LEMUR-2-ANUBHAVTHAKUR   
1 41873U 16062E   17262.75933413  .00001970  00000-0  10014-3 0  9997
2 41873  51.6342 358.6943 0005971 209.0361 286.7774 15.21730677 45310
LEMUR-2-WINGO           
1 41874U 16062F   17262.80966588  .00003868  00000-0  17898-3 0  9998
2 41874  51.6280 357.6491 0007464 183.6663 257.9075 15.22450176 45341
STARS-C                 
1 41895U 98067KR  17263.16130513  .00042674  00000-0  38486-3 0  9991
2 41895  51.6348 273.1296 0004389 355.2195   4.8758 15.67709843 42851
TANCREDO-1              
1 41931U 98067KT  17262.37356959  .00184562  00000-0  79367-3 0  9994
2 41931  51.6286 267.7632 0003856  18.8689 341.2457 15.83959936 38424
ITF-2                   
1 41932U 98067KU  17263.05500361  .00017759  00000-0  20353-3 0  9993
2 41932  51.6388 277.7243 0003619 278.9323  81.1262 15.62179541 38357
WASEDA-SAT3             
1 41933U 98067KV  17263.11462782  .00022713  00000-0  24820-3 0  9994
2 41933  51.6369 276.5927 0003465 287.4793  72.5823 15.63228655 38379
AOBA-VELOX 3            
1 41935U 98067KX  17262.57071670  .00016890  00000-0  18916-3 0  9995
2 41935  51.6382 279.7330 0003160 288.4114  71.6536 15.62820472 38385
OSNSAT                  
1 41939U 98067KZ  17261.41240115  .00054295  00000-0  42949-3 0  9997
2 41939  51.6342 279.4346 0003240 309.6339  50.4372 15.70795367 37535
FLOCK 3P-8              
1 41951U 17008D   17262.93458955  .00003391  00000-0  14705-3 0  9998
2 41951  97.4870 323.9702 0007613 209.7678 150.3127 15.23035715 32959
FLOCK 3P-51             
1 41952U 17008E   17262.90494083  .00002977  00000-0  12946-3 0  9992
2 41952  97.4876 324.0270 0007107 230.7642 129.2964 15.23041520 32956
FLOCK 3P-37             
1 41953U 17008F   17262.92279605  .00003448  00000-0  14749-3 0  9993
2 41953  97.4875 324.1482 0006393 235.6432 124.4200 15.23491519 32967
INS-1B                  
1 41954U 17008G   17262.88560507  .00001821  00000-0  82681-4 0  9997
2 41954  97.4846 323.6696 0008794 212.1764 147.8936 15.22059499 32873
FLOCK 3P-19             
1 41955U 17008H   17263.14723546  .00004132  00000-0  17833-3 0  9996
2 41955  97.4865 324.1347 0008459 209.9557 150.1196 15.23060964 32905
FLOCK 3P-24             
1 41956U 17008J   17262.88145839  .00004229  00000-0  18238-3 0  9997
2 41956  97.4865 323.8759 0008446 207.9667 152.1117 15.23074078 32945
FLOCK 3P-18             
1 41957U 17008K   17262.88248337  .00003698  00000-0  15972-3 0  9996
2 41957  97.4865 323.8784 0008474 210.0078 150.0674 15.23102125 32788
FLOCK 3P-22             
1 41958U 17008L   17262.82295858  .00003166  00000-0  13741-3 0  9993
2 41958  97.4867 323.8063 0008282 209.4525 150.6246 15.23048886 32769
FLOCK 3P-21             
1 41959U 17008M   17262.87679942  .00004308  00000-0  18586-3 0  9990
2 41959  97.4873 323.8996 0008010 211.4565 148.6194 15.23051652 32784
FLOCK 3P-28             
1 41960U 17008N   17262.74353457  .00002205  00000-0  96726-4 0  9995
2 41960  97.4871 323.7663 0007904 210.0728 150.0056 15.23022111 32840
FLOCK 3P-26             
1 41961U 17008P   17262.88394028  .00002843  00000-0  12370-3 0  9990
2 41961  97.4870 323.8832 0008156 208.7314 151.3475 15.23051950 32789
FLOCK 3P-17             
1 41962U 17008Q   17262.86442889  .00003204  00000-0  13909-3 0  9999
2 41962  97.4870 323.9102 0007859 212.0600 148.0159 15.23033727 32735
FLOCK 3P-27             
1 41963U 17008R   17262.89234528  .00004207  00000-0  18176-3 0  9997
2 41963  97.4869 323.8747 0008293 209.6327 150.4440 15.23017579 32781
FLOCK 3P-25             
1 41964U 17008S   17262.87817699  .00001660  00000-0  73382-4 0  9993
2 41964  97.4865 323.8872 0007888 209.8398 150.2389 15.23105144 32760
FLOCK 3P-4              
1 41965U 17008T   17262.87209244  .00001699  00000-0  75128-4 0  9997
2 41965  97.4870 323.9028 0007770 210.9420 149.1360 15.23065071 32861
FLOCK 3P-2              
1 41966U 17008U   17262.87310851  .00002835  00000-0  12331-3 0  9994
2 41966  97.4872 323.9061 0007726 208.8917 151.1893 15.23069662 32784
FLOCK 3P-1              
1 41967U 17008V   17263.15065000  .00003076  00000-0  13453-3 0  9994
2 41967  97.4874 324.1525 0007893 209.7971 150.2817 15.22818318 32820
FLOCK 3P-3              
1 41968U 17008W   17263.20427840  .00004017  00000-0  17359-3 0  9990
2 41968  97.4869 324.2242 0007823 208.1882 151.8932 15.23039096 32913
FLOCK 3P-6              
1 41969U 17008X   17262.87085287  .00002937  00000-0  12756-3 0  9993
2 41969  97.4873 323.9098 0007612 208.7039 151.3780 15.23092400 32778
FLOCK 3P-7              
1 41970U 17008Y   17262.91852131  .00003005  00000-0  13035-3 0  9998
2 41970  97.4873 324.0003 0007601 212.3916 147.6855 15.23114608 32788
FLOCK 3P-5              
1 41971U 17008Z   17263.19582465  .00001737  00000-0  76840-4 0  9994
2 41971  97.4874 324.2471 0007619 210.7794 149.2996 15.23014561 32765
FLOCK 3P-12             
1 41972U 17008AA  17262.86547992  .00004463  00000-0  19282-3 0  9999
2 41972  97.4875 323.9208 0007383 211.8954 148.1836 15.22987590 32861
